     2              NAVIGATION DATA                         RINEX VERSION / TYPE
CCRINEXN V1.6.0 UX  CDDIS               23-SEP-22 23:31     PGM / RUN BY / DATE 
IGS BROADCAST EPHEMERIS FILE                                COMMENT             
    0.2049D-07  0.1490D-07 -0.1192D-06 -0.1192D-06          ION ALPHA           
    0.1249D+06  0.1638D+05 -0.2621D+06  0.2621D+06          ION BETA            
    0.279396772385D-08 0.124344978758D-13   589824     2228 DELTA-UTC: A0,A1,T,W
    18                                                      LEAP SECONDS        
                                                            END OF HEADER       
 4 22  9 23 10  0  0.0-0.114502850920D-03 0.568434188608D-11 0.000000000000D+00
    0.710000000000D+02-0.897812500000D+02 0.424017662038D-08-0.288612109551D+01
   -0.467710196972D-05 0.202069187071D-02 0.114310532808D-04 0.515375727653D+04
    0.468000000000D+06-0.111758708954D-07 0.260435293981D+01 0.745058059692D-08
    0.962073454427D+00 0.158281250000D+03-0.309781775298D+01-0.784104089654D-08
   -0.191079387795D-09 0.100000000000D+01 0.222800000000D+04 0.000000000000D+00
    0.200000000000D+01 0.000000000000D+00-0.465661287308D-08 0.583000000000D+03
    0.460818000000D+06 0.400000000000D+01 0.000000000000D+00 0.000000000000D+00
 6 22  9 23 10  0  0.0 0.469939783215D-03 0.120508047985D-10 0.000000000000D+00
    0.670000000000D+02 0.928125000000D+02 0.398945189097D-08 0.169802171566D+01
    0.487454235554D-05 0.244554027449D-02 0.763125717640D-05 0.515352578354D+04
    0.468000000000D+06 0.000000000000D+00 0.481397136100D+00-0.875443220139D-07
    0.988087749821D+00 0.243718750000D+03-0.894254983161D+00-0.783675500373D-08
    0.299298181256D-09 0.100000000000D+01 0.222800000000D+04 0.000000000000D+00
    0.200000000000D+01 0.000000000000D+00 0.372529029846D-08 0.670000000000D+02
    0.460874000000D+06 0.400000000000D+01 0.000000000000D+00 0.000000000000D+00
 7 22  9 23 10  0  0.0 0.305223278701D-03-0.329691829393D-11 0.000000000000D+00
    0.590000000000D+02 0.396875000000D+02 0.472698261208D-08 0.856669216420D+00
    0.224635004997D-05 0.163938496262D-01 0.930391252041D-05 0.515363549233D+04
    0.468000000000D+06-0.221654772759D-06-0.266232877535D+01 0.894069671631D-07
    0.950958043402D+00 0.198281250000D+03-0.224172828807D+01-0.829855995405D-08
    0.350728894981D-09 0.100000000000D+01 0.222800000000D+04 0.000000000000D+00
    0.200000000000D+01 0.000000000000D+00-0.111758708954D-07 0.590000000000D+02
    0.466806000000D+06 0.400000000000D+01 0.000000000000D+00 0.000000000000D+00
 8 22  9 23 10  0  0.0-0.858106650412D-04-0.159161572810D-11 0.000000000000D+00
    0.990000000000D+02 0.440625000000D+01 0.430232206613D-08-0.255021553067D+01
    0.115483999252D-06 0.753632734995D-02 0.115986913443D-04 0.515359732246D+04
    0.468000000000D+06-0.115483999252D-06-0.594686113418D+00-0.132247805595D-06
    0.962138649371D+00 0.160031250000D+03 0.164632621084D+00-0.777282376931D-08
   -0.303584074067D-09 0.100000000000D+01 0.222800000000D+04 0.000000000000D+00
    0.200000000000D+01 0.000000000000D+00 0.512227416039D-08 0.990000000000D+02
    0.460818000000D+06 0.400000000000D+01 0.000000000000D+00 0.000000000000D+00
 9 22  9 23 10  0  0.0-0.292500015348D-03 0.488853402203D-11 0.000000000000D+00
    0.160000000000D+02-0.960000000000D+02 0.439482591928D-08-0.212008368298D+01
   -0.502914190292D-05 0.250892085023D-02 0.105872750282D-04 0.515376211929D+04
    0.468000000000D+06 0.409781932831D-07 0.254964839683D+01 0.614672899246D-07
    0.955153003419D+00 0.172687500000D+03 0.190375202705D+01-0.794533095493D-08
   -0.280368821344D-09 0.100000000000D+01 0.222800000000D+04 0.000000000000D+00
    0.200000000000D+01 0.000000000000D+00 0.139698386192D-08 0.160000000000D+02
    0.463968000000D+06 0.400000000000D+01 0.000000000000D+00 0.000000000000D+00
10 22  9 23 10  0  0.0-0.451365485787D-05-0.170530256582D-11 0.000000000000D+00
    0.660000000000D+02-0.442812500000D+02 0.464305054455D-08-0.504310409433D+00
   -0.242516398430D-05 0.792097626254D-02 0.262260437012D-05 0.515367950630D+04
    0.468000000000D+06 0.223517417908D-07 0.151989888621D+01 0.108033418655D-06
    0.974838004224D+00 0.335062500000D+03-0.251106691538D+01-0.842392231875D-08
   -0.291083553370D-09 0.100000000000D+01 0.222800000000D+04 0.000000000000D+00
    0.280000000000D+01 0.000000000000D+00 0.232830643654D-08 0.660000000000D+02
    0.463938000000D+06 0.400000000000D+01 0.000000000000D+00 0.000000000000D+00
11 22  9 23 10  0  0.0-0.187959522009D-04-0.329691829393D-11 0.000000000000D+00
    0.186000000000D+03 0.949062500000D+02 0.451625954891D-08-0.287481921510D+01
    0.495463609695D-05 0.736777437851D-03 0.718422234058D-05 0.515364086151D+04
    0.468000000000D+06-0.689178705216D-07 0.528296474240D+00-0.130385160446D-07
    0.964009762556D+00 0.242062500000D+03-0.311861880960D+01-0.809712299196D-08
    0.327156484524D-09 0.100000000000D+01 0.222800000000D+04 0.000000000000D+00
    0.200000000000D+01 0.000000000000D+00-0.838190317154D-08 0.954000000000D+03
    0.463057000000D+06 0.400000000000D+01 0.000000000000D+00 0.000000000000D+00
12 22  9 23 10  0  0.0-0.282810069621D-03-0.602540239925D-11 0.000000000000D+00
    0.530000000000D+02-0.188750000000D+02 0.475126933801D-08 0.151156847329D+00
   -0.122189521790D-05 0.850076158531D-02 0.490061938763D-05 0.515372900581D+04
    0.468000000000D+06-0.128522515297D-06-0.154817963084D+01 0.428408384323D-07
    0.967499710166D+00 0.291750000000D+03 0.131710384826D+01-0.836570560808D-08
   -0.172150027882D-09 0.100000000000D+01 0.222800000000D+04 0.000000000000D+00
    0.200000000000D+01 0.000000000000D+00-0.125728547573D-07 0.530000000000D+02
    0.460875000000D+06 0.400000000000D+01 0.000000000000D+00 0.000000000000D+00
13 22  9 23 10  0  0.0 0.392889138311D-03 0.716227077646D-11 0.000000000000D+00
    0.600000000000D+02-0.776250000000D+02 0.394695012060D-08-0.302306905110D+01
   -0.393576920033D-05 0.648299546447D-02 0.111702829599D-04 0.515368364143D+04
    0.468000000000D+06 0.316649675369D-07 0.270596520345D+01-0.223517417908D-07
    0.969409734046D+00 0.167718750000D+03 0.936919498229D+00-0.761317426212D-08
   -0.892894335490D-10 0.100000000000D+01 0.222800000000D+04 0.000000000000D+00
    0.200000000000D+01 0.000000000000D+00-0.111758708954D-07 0.600000000000D+02
    0.460877000000D+06 0.400000000000D+01 0.000000000000D+00 0.000000000000D+00
14 22  9 23 10  0  0.0-0.101408921182D-03 0.306954461848D-11 0.000000000000D+00
    0.104000000000D+03-0.147500000000D+02 0.515342894672D-08 0.924685004613D-01
   -0.720843672752D-06 0.230850058142D-02 0.442378222942D-05 0.515364935112D+04
    0.468000000000D+06 0.484287738800D-07-0.158298462585D+01 0.931322574616D-08
    0.950884860925D+00 0.288937500000D+03-0.303233266092D+01-0.845999524990D-08
   -0.115361948145D-09 0.100000000000D+01 0.222800000000D+04 0.000000000000D+00
    0.200000000000D+01 0.000000000000D+00-0.791624188423D-08 0.104000000000D+03
    0.460878000000D+06 0.400000000000D+01 0.000000000000D+00 0.000000000000D+00
15 22  9 23 10  0  0.0-0.266954302788D-04 0.306954461848D-11 0.000000000000D+00
    0.600000000000D+02-0.104906250000D+03 0.490198990184D-08 0.275719571830D+01
   -0.545382499695D-05 0.146011090837D-01 0.897608697414D-05 0.515362723732D+04
    0.468000000000D+06 0.100582838059D-06 0.243780825408D+01-0.143423676491D-06
    0.931109852623D+00 0.187968750000D+03 0.113604067197D+01-0.803676333488D-08
   -0.311084386485D-09 0.100000000000D+01 0.222800000000D+04 0.000000000000D+00
    0.200000000000D+01 0.000000000000D+00-0.107102096081D-07 0.600000000000D+02
    0.460879000000D+06 0.400000000000D+01 0.000000000000D+00 0.000000000000D+00
16 22  9 23 10  0  0.0-0.524845439941D-03-0.909494701773D-12 0.000000000000D+00
    0.104000000000D+03-0.200000000000D+02 0.464769359509D-08-0.163065968800D+01
   -0.115111470222D-05 0.127852773294D-01 0.464729964733D-05 0.515370610809D+04
    0.468000000000D+06 0.195577740669D-06-0.152970676885D+01-0.130385160446D-06
    0.967329558165D+00 0.285281250000D+03 0.733128732406D+00-0.805033532878D-08
   -0.103932900651D-09 0.100000000000D+01 0.222800000000D+04 0.000000000000D+00
    0.280000000000D+01 0.000000000000D+00-0.102445483208D-07 0.104000000000D+03
    0.460818000000D+06 0.400000000000D+01 0.000000000000D+00 0.000000000000D+00
17 22  9 23 10  0  0.0 0.661958009005D-03 0.375166564481D-11 0.000000000000D+00
    0.110000000000D+03 0.187500000000D+01 0.392194907921D-08-0.253341965848D+01
    0.195577740669D-06 0.137217578012D-01 0.116340816021D-04 0.515362786484D+04
    0.468000000000D+06 0.117346644402D-06-0.509478384060D+00 0.113621354103D-06
    0.977561580255D+00 0.158343750000D+03-0.147978067954D+01-0.743745265690D-08
   -0.223223583873D-09 0.100000000000D+01 0.222800000000D+04 0.000000000000D+00
    0.200000000000D+01 0.000000000000D+00-0.111758708954D-07 0.110000000000D+03
    0.460881000000D+06 0.400000000000D+01 0.000000000000D+00 0.000000000000D+00
18 22  9 23 10  0  0.0 0.389884226024D-04-0.129602995003D-10 0.000000000000D+00
    0.168000000000D+03 0.970625000000D+02 0.440304054717D-08 0.176315704303D+01
    0.516697764397D-05 0.285398808774D-02 0.694580376148D-05 0.515372566223D+04
    0.468000000000D+06 0.104308128357D-06 0.494245353108D+00 0.875443220139D-07
    0.972617138048D+00 0.251500000000D+03 0.307599949870D+01-0.812105256015D-08
    0.301441127661D-09 0.100000000000D+01 0.222800000000D+04 0.000000000000D+00
    0.200000000000D+01 0.000000000000D+00-0.838190317154D-08 0.424000000000D+03
    0.460818000000D+06 0.400000000000D+01 0.000000000000D+00 0.000000000000D+00
